NORAD_CAT_ID,OBJECT_NAME,OBJECT_TYPE,EPOCH,MEAN_MOTION,ECCENTRICITY,INCLINATION,RA_OF_ASC_NODE,ARG_OF_PERICENTER,MEAN_ANOMALY,BSTAR,MEAN_MOTION_DOT,MEAN_MOTION_DDOT,TLE_LINE0,TLE_LINE1,TLE_LINE2,SEMIMAJOR_AXIS,PERIOD,APOGEE,PERIGEE,DECAYED
55941.0,STARLINK-5914,PAYLOAD,2023-04-05 16:00:00,15.69976147,0.0003332,69.9987,127.9378,272.6766,194.6092,-0.0010257,-0.00122033,0.0,0 STARLINK-5914,1 55941U 23037AD  23095.66667824 -.00122033  00000-0 -10257-2 0  9993,2 55941  69.9987 127.9378 0003332 272.6766 194.6092 15.69976147  3490,6737.102,91.721,361.212,356.722,0.0
55941.0,STARLINK-5914,PAYLOAD,2023-04-05 22:00:00,15.6983421,0.0003417,69.9981,127.2349,264.1171,175.7085,0.0011686,0.00142178,0.0,0 STARLINK-5914,1 55941U 23037AD  23095.91667824  .00142178  00000-0  11686-2 0  9998,2 55941  69.9981 127.2349 0003417 264.1171 175.7085 15.69834210  1309,6737.508,91.729,361.676,357.071,0.0
55941.0,STARLINK-5914,PAYLOAD,2023-04-06 10:00:00,15.69890493,0.0003403,69.9995,125.8291,271.8068,112.9886,0.00046904,0.00056488,0.0,0 STARLINK-5914,1 55941U 23037AD  23096.41667824  .00056488  00000-0  46904-3 0  9994,2 55941  69.9995 125.8291 0003403 271.8068 112.9886 15.69890493  3612,6737.347,91.726,361.505,356.92,0.0
55941.0,STARLINK-5914,PAYLOAD,2023-04-06 14:00:01,15.69948132,0.0003454,69.9995,125.3603,271.3724,335.1391,-0.00028037,-0.00033824,0.0,0 STARLINK-5914,1 55941U 23037AD  23096.58335648 -.00033824  00000-0 -28037-3 0  9996,2 55941  69.9995 125.3603 0003454 271.3724 335.1391 15.69948132  1302,6737.182,91.723,361.374,356.72,0.0
55941.0,STARLINK-5914,PAYLOAD,2023-04-06 22:00:00,15.69867829,0.0003414,69.9998,124.4232,264.2011,65.6131,0.00086399,0.00104737,0.0,0 STARLINK-5914,1 55941U 23037AD  23096.91667824  .00104737  00000-0  86399-3 0  9992,2 55941  69.9998 124.4232 0003414 264.2011  65.6131 15.69867829  3693,6737.412,91.727,361.577,356.977,0.0
55941.0,STARLINK-5914,PAYLOAD,2023-04-07 08:00:01,15.69909681,0.0003387,69.9998,123.2519,270.3288,253.6498,2.9769e-05,3.366e-05,0.0,0 STARLINK-5914,1 55941U 23037AD  23097.33334491  .00003366  00000-0  29769-4 0  9995,2 55941  69.9998 123.2519 0003387 270.3288 253.6498 15.69909681  3756,6737.292,91.725,361.439,356.875,0.0
55941.0,STARLINK-5914,PAYLOAD,2023-04-07 14:00:01,15.69965833,0.0003322,69.9996,122.5489,270.3065,226.1396,-0.00050897,-0.00061074,0.0,0 STARLINK-5914,1 55941U 23037AD  23097.58334491 -.00061074  00000-0 -50897-3 0  9999,2 55941  69.9996 122.5489 0003322 270.3065 226.1396 15.69965833  1306,6737.132,91.722,361.235,356.759,0.0
55941.0,STARLINK-5914,PAYLOAD,2023-04-08 10:49:47,15.69923551,0.0003644,69.9989,120.1097,263.6637,96.4144,1.9172e-05,2.093e-05,0.0,0 STARLINK-5914,1 55941U 23037AD  23098.45124212  .00002093  00000-0  19172-4 0  9990,2 55941  69.9989 120.1097 0003644 263.6637  96.4144 15.69923551  3935,6737.253,91.724,361.573,356.663,0.0
55941.0,STARLINK-5914,PAYLOAD,2023-04-09 11:17:48,15.69934649,0.000342,69.9995,117.2416,266.313,93.7674,4.2185e-05,4.865e-05,0.0,0 STARLINK-5914,1 55941U 23037AD  23099.47070584  .00004865  00000-0  42185-4 0  9994,2 55941  69.9995 117.2416 0003420 266.3130  93.7674 15.69934649  3752,6737.221,91.724,361.39,356.782,0.0
55941.0,STARLINK-5914,PAYLOAD,2023-04-09 12:49:34,15.69930588,0.0003359,70.0005,117.0643,267.0317,93.0495,3.0601e-05,3.469e-05,0.0,0 STARLINK-5914,1 55941U 23037AD  23099.53442406  .00003469  00000-0  30601-4 0  9996,2 55941  70.0005 117.0643 0003359 267.0317  93.0495 15.69930588  4105,6737.233,91.724,361.361,356.835,0.0
55941.0,STARLINK-5914,PAYLOAD,2023-04-10 13:17:36,15.69927589,0.0003183,69.9992,114.1975,269.7683,90.3148,1.8482e-05,2.01e-05,0.0,0 STARLINK-5914,1 55941U 23037AD  23100.55389252  .00002010  00000-0  18482-4 0  9994,2 55941  69.9992 114.1975 0003183 269.7683  90.3148 15.69927589  4262,6737.241,91.724,361.251,356.962,0.0
55941.0,STARLINK-5914,PAYLOAD,2023-04-10 17:52:51,15.69923596,0.0003173,69.9995,113.6593,273.5718,86.5115,4.6566e-06,3.47e-06,0.0,0 STARLINK-5914,1 55941U 23037AD  23100.74504375  .00000347  00000-0  46566-5 0  9996,2 55941  69.9995 113.6593 0003173 273.5718  86.5115 15.69923596  3956,6737.253,91.724,361.255,356.98,0.0
55941.0,STARLINK-5914,PAYLOAD,2023-04-11 12:13:53,15.69921469,0.0003267,69.9993,111.5099,271.0957,88.9864,-1.3857e-05,-1.878e-05,0.0,0 STARLINK-5914,1 55941U 23037AD  23101.50964626 -.00001878  00000-0 -13857-4 0  9998,2 55941  69.9993 111.5099 0003267 271.0957  88.9864 15.69921469  4072,6737.259,91.724,361.325,356.923,0.0
55941.0,STARLINK-5914,PAYLOAD,2023-04-11 18:20:53,15.69931793,0.0003618,69.9985,110.7946,270.3659,89.7122,1.0914e-05,1.1e-05,0.0,0 STARLINK-5914,1 55941U 23037AD  23101.76450724  .00001100  00000-0  10914-4 0  9992,2 55941  69.9985 110.7946 0003618 270.3659  89.7122 15.69931793  4455,6737.229,91.724,361.532,356.657,0.0
55941.0,STARLINK-5914,PAYLOAD,2023-04-12 09:38:25,15.69916885,0.0003266,70.0,109.0021,269.8054,90.2768,-6.9417e-06,-1.047e-05,0.0,0 STARLINK-5914,1 55941U 23037AD  23102.40168289 -.00001047  00000-0 -69417-5 0  9991,2 55941  70.0000 109.0021 0003266 269.8054  90.2768 15.69916885  4551,6737.272,91.725,361.337,356.936,0.0
55941.0,STARLINK-5914,PAYLOAD,2023-04-12 17:17:10,15.69925118,0.0003062,70.0007,108.1073,277.1987,82.8861,6.9061e-06,6.18e-06,0.0,0 STARLINK-5914,1 55941U 23037AD  23102.72026345  .00000618  00000-0  69061-5 0  9998,2 55941  70.0007 108.1073 0003062 277.1987  82.8861 15.69925118  4602,6737.248,91.724,361.176,357.05,0.0
55941.0,STARLINK-5914,PAYLOAD,2023-04-13 10:06:27,15.69911236,0.0002677,69.9996,106.1377,280.0775,80.0119,-3.5129e-06,-6.34e-06,0.0,0 STARLINK-5914,1 55941U 23037AD  23103.42115665 -.00000634  00000-0 -35129-5 0  9998,2 55941  69.9996 106.1377 0002677 280.0775  80.0119 15.69911236  4376,6737.288,91.725,360.957,357.349,0.0
55941.0,STARLINK-5914,PAYLOAD,2023-04-14 09:02:43,15.69929717,0.0003401,69.9991,103.4504,268.5305,91.5501,1.0492e-05,1.049e-05,0.0,0 STARLINK-5914,1 55941U 23037AD  23104.37689602  .00001049  00000-0  10492-4 0  9994,2 55941  69.9991 103.4504 0003401 268.5305  91.5501 15.69929717  4868,6737.235,91.724,361.391,356.809,0.0
55941.0,STARLINK-5914,PAYLOAD,2023-04-15 06:27:15,15.69924511,0.0003071,70.0,100.9423,259.5794,100.5055,1.2294e-05,1.266e-05,0.0,0 STARLINK-5914,1 55941U 23037AD  23105.26893342  .00001266  00000-0  12294-4 0  9994,2 55941  70.0000 100.9423 0003071 259.5794 100.5055 15.69924511  5008,6737.25,91.724,361.184,357.046,0.0
55941.0,STARLINK-5914,PAYLOAD,2023-04-15 09:30:46,15.69920062,0.0003163,69.9994,100.5834,263.5991,96.4844,1.4026e-06,-4.4e-07,0.0,0 STARLINK-5914,1 55941U 23037AD  23105.39636866 -.00000044  00000-0  14026-5 0  9994,2 55941  69.9994 100.5834 0003163 263.5991  96.4844 15.69920062  4684,6737.263,91.724,361.259,356.997,0.0
55941.0,STARLINK-5914,PAYLOAD,2023-04-16 08:27:02,15.69929156,0.0003231,70.0009,97.8982,260.4522,99.6308,1.6336e-05,1.752e-05,0.0,0 STARLINK-5914,1 55941U 23037AD  23106.35211500  .00001752  00000-0  16336-4 0  9996,2 55941  70.0009  97.8982 0003231 260.4522  99.6308 15.69929156  5176,6737.237,91.724,361.278,356.925,0.0
55941.0,STARLINK-5914,PAYLOAD,2023-04-17 02:48:04,15.69921806,0.0003214,70.0006,95.7478,257.6525,102.4311,2.1093e-06,4.1e-07,0.0,0 STARLINK-5914,1 55941U 23037AD  23107.11671919  .00000041  00000-0  21093-5 0  9992,2 55941  70.0006  95.7478 0003214 257.6525 102.4311 15.69921806  5296,6737.258,91.724,361.288,356.957,0.0
55941.0,STARLINK-5914,PAYLOAD,2023-04-17 11:58:34,15.6994919,0.0003022,69.9974,94.6719,256.8828,103.2031,-4.0291e-05,-5.059e-05,0.0,0 STARLINK-5914,1 55941U 23037AD  23107.49900759 -.00005059  00000-0 -40291-4 0  9996,2 55941  69.9974  94.6719 0003022 256.8828 103.2031 15.69949190  5358,6737.179,91.723,361.08,357.008,0.0
55941.0,STARLINK-5914,PAYLOAD,2023-04-18 07:51:21,15.69922433,0.0003507,69.9995,92.3428,267.9724,92.107,3.6149e-05,4.136e-05,0.0,0 STARLINK-5914,1 55941U 23037AD  23108.32733669  .00004136  00000-0  36149-4 0  9993,2 55941  69.9995  92.3428 0003507 267.9724  92.1070 15.69922433  5483,6737.256,91.724,361.484,356.758,0.0
55941.0,STARLINK-5914,PAYLOAD,2023-04-19 08:19:23,15.69930415,0.0003434,69.9997,89.4762,261.8404,98.2402,2.8083e-05,3.166e-05,0.0,0 STARLINK-5914,1 55941U 23037AD  23109.34680306  .00003166  00000-0  28083-4 0  9995,2 55941  69.9997  89.4762 0003434 261.8404  98.2402 15.69930415  5643,6737.233,91.724,361.412,356.785,0.0
55941.0,STARLINK-5914,PAYLOAD,2023-04-20 08:47:26,15.69923272,0.0003264,70.0021,86.6114,254.9517,105.1318,2.4102e-05,2.686e-05,0.0,0 STARLINK-5914,1 55941U 23037AD  23110.36627513  .00002686  00000-0  24102-4 0  9994,2 55941  70.0021  86.6114 0003264 254.9517 105.1318 15.69923272  5460,6737.254,91.724,361.318,356.919,0.0
55941.0,STARLINK-5914,PAYLOAD,2023-04-21 06:11:57,15.69926922,0.0003102,70.0004,84.1004,262.1643,97.9201,3.3114e-05,3.771e-05,0.0,0 STARLINK-5914,1 55941U 23037AD  23111.25830775  .00003771  00000-0  33114-4 0  9998,2 55941  70.0004  84.1004 0003102 262.1643  97.9201 15.69926922  5604,6737.243,91.724,361.198,357.018,0.0
55941.0,STARLINK-5914,PAYLOAD,2023-04-21 21:29:29,15.6992424,0.0003606,69.9987,82.3098,262.925,97.1536,7.3008e-06,6.65e-06,0.0,0 STARLINK-5914,1 55941U 23037AD  23111.89547522  .00000665  00000-0  73008-5 0  9999,2 55941  69.9987  82.3098 0003606 262.9250  97.1536 15.69924240  5700,6737.251,91.724,361.545,356.686,0.0
55941.0,STARLINK-5914,PAYLOAD,2023-04-22 00:32:59,15.69927111,0.0003869,69.9982,81.9517,264.3134,95.7621,1.3369e-05,1.395e-05,0.0,0 STARLINK-5914,1 55941U 23037AD  23112.02290735  .00001395  00000-0  13369-4 0  9990,2 55941  69.9982  81.9517 0003869 264.3134  95.7621 15.69927111  6063,6737.243,91.724,361.714,356.501,0.0
55941.0,STARLINK-5914,PAYLOAD,2023-04-23 04:04:31,15.69924279,0.0003311,69.9978,78.7273,266.1756,93.9061,4.0605e-06,2.75e-06,0.0,0 STARLINK-5914,1 55941U 23037AD  23113.16981252  .00000275  00000-0  40605-5 0  9997,2 55941  69.9978  78.7273 0003311 266.1756  93.9061 15.69924279  6243,6737.251,91.724,361.346,356.885,0.0
